{
  "type": "FeatureCollection",
  "features": [
    {
      "type": "Feature",
      "properties": {
        "norad_id": 46805,
        "name": "COSMOS 2547 (705K)",
        "group": "glo-ops",
        "lat": -0.6747092720151027,
        "lon": 18.859296491725786,
        "alt_km": 19120.014136188744,
        "timestamp": "2025-12-17T13:48:37.816170+00:00",
        "meta_object_name": "COSMOS 2547 (705K)",
        "meta_object_id": "2020-075A",
        "meta_epoch": "2025-12-16T20:53:31.957728",
        "meta_mean_motion": 2.13100128,
        "meta_eccentricity": 0.00062107,
        "meta_inclination": 64.5961,
        "meta_ra_of_asc_node": 198.5585,
        "meta_arg_of_pericenter": 228.4879,
        "meta_mean_anomaly": 131.5408,
        "meta_ephemeris_type": 0,
        "meta_classification_type": "U",
        "meta_norad_cat_id": 46805,
        "meta_element_set_no": 999,
        "meta_rev_at_epoch": 4002,
        "meta_bstar": 0,
        "meta_mean_motion_dot": 1.11e-06,
        "meta_mean_motion_ddot": 0,
        "tle_line1": "1 46805U 20075A   25350.87050877  .00000111  00000+0  00000+0 0  9995",
        "tle_line2": "2 46805  64.5961 198.5585 0006210 228.4879 131.5408  2.13100128 40022"
      },
      "geometry": {
        "type": "Point",
        "coordinates": [
          18.859296491725786,
          -0.6747092720151027
        ]
      }
    },
    {
      "type": "Feature",
      "properties": {
        "norad_id": 52984,
        "name": "COSMOS 2557 (706K)",
        "group": "glo-ops",
        "lat": 46.85458016901409,
        "lon": -8.386826575017025,
        "alt_km": 19149.99812873538,
        "timestamp": "2025-12-17T13:48:37.816182+00:00",
        "meta_object_name": "COSMOS 2557 (706K)",
        "meta_object_id": "2022-075A",
        "meta_epoch": "2025-12-16T02:19:59.542752",
        "meta_mean_motion": 2.13101842,
        "meta_eccentricity": 0.001368,
        "meta_inclination": 64.4074,
        "meta_ra_of_asc_node": 320.9331,
        "meta_arg_of_pericenter": 277.1677,
        "meta_mean_anomaly": 82.672,
        "meta_ephemeris_type": 0,
        "meta_classification_type": "U",
        "meta_norad_cat_id": 52984,
        "meta_element_set_no": 999,
        "meta_rev_at_epoch": 2681,
        "meta_bstar": 0,
        "meta_mean_motion_dot": -7e-07,
        "meta_mean_motion_ddot": 0,
        "tle_line1": "1 52984U 22075A   25350.09721693 -.00000070  00000+0  00000+0 0  9992",
        "tle_line2": "2 52984  64.4074 320.9331 0013680 277.1677  82.6720  2.13101842 26815"
      },
      "geometry": {
        "type": "Point",
        "coordinates": [
          -8.386826575017025,
          46.85458016901409
        ]
      }
    },
    {
      "type": "Feature",
      "properties": {
        "norad_id": 54031,
        "name": "COSMOS 2559 (707K)",
        "group": "glo-ops",
        "lat": -11.509296837917232,
        "lon": 146.5624233644449,
        "alt_km": 19101.983093841274,
        "timestamp": "2025-12-17T13:48:37.816192+00:00",
        "meta_object_name": "COSMOS 2559 (707K)",
        "meta_object_id": "2022-130A",
        "meta_epoch": "2025-12-14T00:56:40.379136",
        "meta_mean_motion": 2.13101379,
        "meta_eccentricity": 0.00117642,
        "meta_inclination": 64.3815,
        "meta_ra_of_asc_node": 321.0953,
        "meta_arg_of_pericenter": 192.3475,
        "meta_mean_anomaly": 167.6228,
        "meta_ephemeris_type": 0,
        "meta_classification_type": "U",
        "meta_norad_cat_id": 54031,
        "meta_element_set_no": 999,
        "meta_rev_at_epoch": 2474,
        "meta_bstar": 0,
        "meta_mean_motion_dot": -6.6e-07,
        "meta_mean_motion_ddot": 0,
        "tle_line1": "1 54031U 22130A   25348.03935624 -.00000066  00000+0  00000+0 0  9996",
        "tle_line2": "2 54031  64.3815 321.0953 0011764 192.3475 167.6228  2.13101379 24741"
      },
      "geometry": {
        "type": "Point",
        "coordinates": [
          146.5624233644449,
          -11.509296837917232
        ]
      }
    },
    {
      "type": "Feature",
      "properties": {
        "norad_id": 54377,
        "name": "COSMOS 2564 (761)",
        "group": "glo-ops",
        "lat": -41.94377502139806,
        "lon": 173.62823954330852,
        "alt_km": 19141.8021704429,
        "timestamp": "2025-12-17T13:48:37.816203+00:00",
        "meta_object_name": "COSMOS 2564 (761)",
        "meta_object_id": "2022-161A",
        "meta_epoch": "2025-12-16T16:46:44.679072",
        "meta_mean_motion": 2.13102099,
        "meta_eccentricity": 0.00085776,
        "meta_inclination": 64.7384,
        "meta_ra_of_asc_node": 198.7673,
        "meta_arg_of_pericenter": 204.2808,
        "meta_mean_anomaly": 155.7608,
        "meta_ephemeris_type": 0,
        "meta_classification_type": "U",
        "meta_norad_cat_id": 54377,
        "meta_element_set_no": 999,
        "meta_rev_at_epoch": 2374,
        "meta_bstar": 0,
        "meta_mean_motion_dot": 1.11e-06,
        "meta_mean_motion_ddot": 0,
        "tle_line1": "1 54377U 22161A   25350.69912823  .00000111  00000+0  00000+0 0  9994",
        "tle_line2": "2 54377  64.7384 198.7673 0008577 204.2808 155.7608  2.13102099 23747"
      },
      "geometry": {
        "type": "Point",
        "coordinates": [
          173.62823954330852,
          -41.94377502139806
        ]
      }
    },
    {
      "type": "Feature",
      "properties": {
        "norad_id": 57517,
        "name": "COSMOS 2569 (703K)",
        "group": "glo-ops",
        "lat": -50.36706591516239,
        "lon": 44.88443841735262,
        "alt_km": 19109.231329461818,
        "timestamp": "2025-12-17T13:48:37.816215+00:00",
        "meta_object_name": "COSMOS 2569 (703K)",
        "meta_object_id": "2023-114A",
        "meta_epoch": "2025-12-17T04:21:40.359168",
        "meta_mean_motion": 2.13104058,
        "meta_eccentricity": 0.00106912,
        "meta_inclination": 65.1965,
        "meta_ra_of_asc_node": 78.7634,
        "meta_arg_of_pericenter": 286.983,
        "meta_mean_anomaly": 72.918,
        "meta_ephemeris_type": 0,
        "meta_classification_type": "U",
        "meta_norad_cat_id": 57517,
        "meta_element_set_no": 999,
        "meta_rev_at_epoch": 1838,
        "meta_bstar": 0,
        "meta_mean_motion_dot": -5e-07,
        "meta_mean_motion_ddot": 0,
        "tle_line1": "1 57517U 23114A   25351.18171712 -.00000050  00000+0  00000+0 0  9994",
        "tle_line2": "2 57517  65.1965  78.7634 0010691 286.9830  72.9180  2.13104058 18388"
      },
      "geometry": {
        "type": "Point",
        "coordinates": [
          44.88443841735262,
          -50.36706591516239
        ]
      }
    },
    {
      "type": "Feature",
      "properties": {
        "norad_id": 63130,
        "name": "COSMOS 2584 (704K)",
        "group": "glo-ops",
        "lat": 26.064976843736382,
        "lon": 92.17256512942807,
        "alt_km": 19146.313465710737,
        "timestamp": "2025-12-17T13:48:37.816226+00:00",
        "meta_object_name": "COSMOS 2584 (704K)",
        "meta_object_id": "2025-042A",
        "meta_epoch": "2025-12-14T17:19:43.603680",
        "meta_mean_motion": 2.13103043,
        "meta_eccentricity": 0.00076907,
        "meta_inclination": 64.977,
        "meta_ra_of_asc_node": 79.0784,
        "meta_arg_of_pericenter": 217.9412,
        "meta_mean_anomaly": 142.0178,
        "meta_ephemeris_type": 0,
        "meta_classification_type": "U",
        "meta_norad_cat_id": 63130,
        "meta_element_set_no": 999,
        "meta_rev_at_epoch": 611,
        "meta_bstar": 0,
        "meta_mean_motion_dot": -5.6e-07,
        "meta_mean_motion_ddot": 0,
        "tle_line1": "1 63130U 25042A   25348.72203245 -.00000056  00000+0  00000+0 0  9993",
        "tle_line2": "2 63130  64.9770  79.0784 0007690 217.9412 142.0178  2.13103043  6119"
      },
      "geometry": {
        "type": "Point",
        "coordinates": [
          92.17256512942807,
          26.064976843736382
        ]
      }
    },
    {
      "type": "Feature",
      "properties": {
        "norad_id": 65590,
        "name": "COSMOS 2596 (708K)",
        "group": "glo-ops",
        "lat": 29.119396895740433,
        "lon": 126.04838607919528,
        "alt_km": 19160.28281339694,
        "timestamp": "2025-12-17T13:48:37.816237+00:00",
        "meta_object_name": "COSMOS 2596 (708K)",
        "meta_object_id": "2025-206B",
        "meta_epoch": "2025-12-16T13:58:37.157664",
        "meta_mean_motion": 2.13100551,
        "meta_eccentricity": 0.00140491,
        "meta_inclination": 64.7424,
        "meta_ra_of_asc_node": 321.3409,
        "meta_arg_of_pericenter": 306.7915,
        "meta_mean_anomaly": 158.8114,
        "meta_ephemeris_type": 0,
        "meta_classification_type": "U",
        "meta_norad_cat_id": 65590,
        "meta_element_set_no": 999,
        "meta_rev_at_epoch": 202,
        "meta_bstar": 0,
        "meta_mean_motion_dot": -6.9e-07,
        "meta_mean_motion_ddot": 0,
        "tle_line1": "1 65590U 25206B   25350.58237451 -.00000069  00000+0  00000+0 0  9994",
        "tle_line2": "2 65590  64.7424 321.3409 0014049 306.7915 158.8114  2.13100551  2025"
      },
      "geometry": {
        "type": "Point",
        "coordinates": [
          126.04838607919528,
          29.119396895740433
        ]
      }
    }
  ]
}